{
  "features": [
    {
      "geometry": {
        "coordinates": [
          [
            14.2083167,
            46.2719167
          ],
          [
            13.5488,
            46.3288
          ],
          [
            13.8647,
            46.5122
          ],
          [
            13.2755333,
            46.5602833
          ],
          [
            13.0727167,
            46.2341667
          ]
        ],
        "type": "LineString"
      },
      "id": "official-task-route",
      "properties": {
        "confidence": "MEDIUM",
        "kind": "OFFICIAL_TASK_ROUTE",
        "provenance": {
          "task_id": "28277"
        },
        "sample_count": null,
        "source": "FPL_TASK_WITH_VERIFIED_COORDINATES"
      },
      "type": "Feature"
    },
    {
      "geometry": {
        "coordinates": [
          [
            14.2083167,
            46.2719167
          ],
          [
            13.5488,
            46.3288
          ],
          [
            13.8647,
            46.5122
          ],
          [
            13.2755333,
            46.5602833
          ],
          [
            13.0727167,
            46.2341667
          ]
        ],
        "type": "LineString"
      },
      "id": "task-direct",
      "properties": {
        "confidence": "HIGH",
        "kind": "TASK_DIRECT",
        "provenance": {
          "definition": "START_TP_FINISH_GEODESIC_SEGMENTS"
        },
        "sample_count": null,
        "source": "GEODESIC_CONTROL_CONNECTION"
      },
      "type": "Feature"
    },
    {
      "geometry": {
        "coordinates": [
          [
            13.8647,
            46.5122
          ],
          [
            13.2755333,
            46.5602833
          ],
          [
            13.0727167,
            46.2341667
          ]
        ],
        "type": "LineString"
      },
      "id": "fg-official-task-fallback",
      "properties": {
        "confidence": "MEDIUM",
        "kind": "OFFICIAL_TASK_ROUTE",
        "provenance": {
          "distance_basis": "OFFICIAL_TASK_REMAINING",
          "fallback_reason": "NO_PLANNED_FG_ROUTE",
          "next_task_point_index": 4
        },
        "sample_count": null,
        "source": "SCENARIO_START_PLUS_FPL_TASK"
      },
      "type": "Feature"
    },
    {
      "geometry": {
        "coordinates": [
          14.2083167,
          46.2719167
        ],
        "type": "Point"
      },
      "id": "task-point-1",
      "properties": {
        "confidence": "MEDIUM",
        "kind": "START",
        "provenance": {
          "fpl_index": 1,
          "name": "Jamnik Cerkev"
        },
        "sample_count": null,
        "source": "SLOVENIA_NORMALIZED_WAYPOINT_KB"
      },
      "type": "Feature"
    },
    {
      "geometry": {
        "coordinates": [
          13.5488,
          46.3288
        ],
        "type": "Point"
      },
      "id": "task-point-2",
      "properties": {
        "confidence": "MEDIUM",
        "kind": "TURNPOINT",
        "provenance": {
          "fpl_index": 2,
          "name": "Bovec"
        },
        "sample_count": null,
        "source": "SLOVENIA_NORMALIZED_WAYPOINT_KB"
      },
      "type": "Feature"
    },
    {
      "geometry": {
        "coordinates": [
          13.8647,
          46.5122
        ],
        "type": "Point"
      },
      "id": "task-point-3",
      "properties": {
        "confidence": "MEDIUM",
        "kind": "TURNPOINT",
        "provenance": {
          "fpl_index": 3,
          "name": "Lepi Vrh"
        },
        "sample_count": null,
        "source": "SLOVENIA_NORMALIZED_WAYPOINT_KB"
      },
      "type": "Feature"
    },
    {
      "geometry": {
        "coordinates": [
          13.2755333,
          46.5602833
        ],
        "type": "Point"
      },
      "id": "task-point-4",
      "properties": {
        "confidence": "MEDIUM",
        "kind": "TURNPOINT",
        "provenance": {
          "fpl_index": 4,
          "name": "Nassfeld Pass Zo"
        },
        "sample_count": null,
        "source": "SLOVENIA_NORMALIZED_WAYPOINT_KB"
      },
      "type": "Feature"
    },
    {
      "geometry": {
        "coordinates": [
          13.0727167,
          46.2341667
        ],
        "type": "Point"
      },
      "id": "task-point-5",
      "properties": {
        "confidence": "MEDIUM",
        "kind": "FINISH",
        "provenance": {
          "fpl_index": 5,
          "name": "Rivoli-di-Osoppo"
        },
        "sample_count": null,
        "source": "SLOVENIA_NORMALIZED_WAYPOINT_KB"
      },
      "type": "Feature"
    },
    {
      "geometry": {
        "coordinates": [
          13.2949729,
          46.5587464
        ],
        "type": "Point"
      },
      "id": "critical-terrain",
      "properties": {
        "confidence": "MEDIUM",
        "kind": "CRITICAL_TERRAIN",
        "provenance": {
          "clearance_m": 548.132,
          "distance_along_route_m": 43885.505,
          "required_ground_ld": 80.063753,
          "state": "GEOMETRICALLY_FEASIBLE"
        },
        "sample_count": null,
        "source": "PRE_RACE_TERRAIN_GEOMETRY"
      },
      "type": "Feature"
    }
  ],
  "type": "FeatureCollection"
}
